COSMOS 2058             
1 20465U 90010A   26198.50981361  .00001785  00000+0  10176-3 0  9994
2 20465  82.4674 279.4490 0008098 240.0619 119.9808 15.12164129961859
SL-14 R/B               
1 20466U 90010B   26198.92172577  .00000188  00000+0  19867-4 0  9995
2 20466  82.5037 145.0824 0018533 227.6140 132.3507 14.83663921947791
SL-14 R/B               
1 20511U 90018B   26198.79490002  .00000191  00000+0  20928-4 0  9999
2 20511  82.5215 101.5003 0016829  28.7253 331.4885 14.82234966941851
HST                     
1 20580U 90037B   26198.78172768  .00003062  00000+0  91664-4 0  9996
2 20580  28.4720 231.4172 0002181 129.0491 231.0299 15.31075985793265
SL-16 R/B               
1 20625U 90046B   26198.91093920  .00000293  00000+0  17559-3 0  9996
2 20625  70.9990  24.4195 0012338 109.5306 250.7150 14.15026422866813
COSMOS 2084             
1 20663U 90055A   26198.53506317  .00000684  00000+0  60239-4 0  9993
2 20663  62.7880 252.4997 0008377 320.4750  39.5739 15.06228084955870
SL-6 R/B(2)             
1 20666U 90055D   26198.89843667  .00000997  00000+0  84907-4 0  9992
2 20666  62.7806 170.8606 0045542   9.3607 350.8330 15.04094548957771
SL-8 R/B                
1 20775U 90078B   26198.88864204  .00008004  00000+0  22679-3 0  9991
2 20775  82.9035 133.8725 0343161 294.3680  62.2078 14.93621506828706
SL-8 R/B                
1 21088U 91006B   26198.92338572  .00000079  00000+0  63464-4 0  9992
2 21088  82.9405  73.1658 0023282  33.1737 337.4752 13.77509584782007
OKEAN-3                 
1 21397U 91039A   26198.84768305  .00001768  00000+0  12108-3 0  9997
2 21397  82.5146 210.6456 0012640 244.4727 115.5194 15.05443719884619
COSMOS 2151             
1 21422U 91042A   26198.86912470  .00000948  00000+0  73003-4 0  9997
2 21422  82.4983 318.0705 0011707 346.2469  13.8435 15.00517414882719
SL-14 R/B               
1 21423U 91042B   26198.87548778  .00000175  00000+0  19028-4 0  9994
2 21423  82.4931  98.1180 0017228 168.1695 191.9928 14.81918856872359
ERS-1                   
1 21574U 91050A   26198.67850550  .00000177  00000+0  71159-4 0  9997
2 21574  98.7796 220.1212 0032047 174.4385 185.7164 14.39534488834438
ARIANE 40 R/B           
1 21610U 91050F   26198.55960951  .00000099  00000+0  42142-4 0  9995
2 21610  98.1861 245.7910 0004064  56.2498 303.9080 14.42972584837727
INTERCOSMOS 25          
1 21819U 91086A   26198.15677946  .00000094  00000+0  15423-4 0  9997
2 21819  82.6004 231.6740 1484676 197.6921 156.6658 12.12241021512378
SL-8 R/B                
1 21876U 92008B   26198.95630346  .00000096  00000+0  82153-4 0  9992
2 21876  82.9274 170.9107 0035794 129.1040 285.5369 13.75984233727333
SL-8 R/B                
1 21938U 92020B   26198.59798081 -.00000001  00000+0 -16760-4 0  9995
2 21938  82.9279  57.2649 0027865 296.5120  92.2018 13.75550049718993
USA 81                  
1 21949U 92023A   26198.59237963  .00000092  00000+0  26663-4 0  9998
2 21949  85.0049  56.4542 0001885  65.5660 294.5729 14.32405338113386
COSMOS 2219             
1 22219U 92076A   26198.89055112 -.00000252  00000+0 -10744-3 0  9996
2 22219  71.0609 105.8893 0018419 353.4208   6.6670 14.14107698736780
SL-16 R/B               
1 22220U 92076B   26198.51885225  .00000007  00000+0  27520-4 0  9990
2 22220  71.0003 274.8867 0015038 259.2518 111.9309 14.16877988740220
COSMOS 2221             
1 22236U 92080A   26198.89516033  .00000844  00000+0  71615-4 0  9994
2 22236  82.5047 154.3438 0015860 111.9853 248.3057 14.96608197800265
SL-16 R/B               
1 22285U 92093B   26198.98362252 -.00000264  00000+0 -11067-3 0  9996
2 22285  71.0215  90.7419 0002182 126.5962 233.5362 14.15464680731599
COSMOS 2228             
1 22286U 92094A   26198.88873706  .00000839  00000+0  69235-4 0  9995
2 22286  82.5187 112.6354 0016509 219.4553 140.5468 14.97680171795547
SL-16 R/B               
1 22566U 93016B   26198.26019547  .00000276  00000+0  16632-3 0  9995
2 22566  71.0086 303.0435 0008758 134.2775 225.9068 14.15313778720506
COSMOS 2242             
1 22626U 93024A   26198.92913639  .00000875  00000+0  73663-4 0  9992
2 22626  82.5199 142.1314 0014820 222.6075 137.3999 14.96989352799876
SL-16 R/B               
1 22803U 93059B   26198.98058089  .00000055  00000+0  51193-4 0  9996
2 22803  70.9901  96.3670 0016807   4.4496 355.6774 14.17249456697993
ARIANE 40 R/B           
1 22830U 93061H   26198.79001932  .00000062  00000+0  38339-4 0  9998
2 22830  98.4804 265.0092 0009526 257.1450 102.8671 14.32919086712738
COSMOS 2278             
1 23087U 94023A   26198.58699301  .00000094  00000+0  73588-4 0  9992
2 23087  71.0519 263.3217 0009513 201.9493 158.1223 14.14393680663179
SL-16 R/B               
1 23088U 94023B   26198.92862995  .00000239  00000+0  14816-3 0  9991
2 23088  70.9987 157.3712 0001353 117.5878 242.5382 14.15025717664519
SL-16 R/B               
1 23343U 94074B   26198.53244491  .00000166  00000+0  28705-4 0  9995
2 23343  97.6986 223.9877 0007341 147.4090  13.5852 14.79525447706443
