OBJECT_NAME,OBJECT_ID,EPOCH,MEAN_MOTION,ECCENTRICITY,INCLINATION,RA_OF_ASC_NODE,ARG_OF_PERICENTER,MEAN_ANOMALY,EPHEMERIS_TYPE,CLASSIFICATION_TYPE,NORAD_CAT_ID,ELEMENT_SET_NO,REV_AT_EPOCH,BSTAR,MEAN_MOTION_DOT,MEAN_MOTION_DDOT
COSMOS 2058,1990-010A,2026-07-17T12:14:07.895904,15.12164129,.0008098,82.4674,279.4490,240.0619,119.9808,0,U,20465,999,96185,.10176E-3,.1785E-4,0
SL-14 R/B,1990-010B,2026-07-17T22:07:17.106528,14.83663921,.0018533,82.5037,145.0824,227.6140,132.3507,0,U,20466,999,94779,.19867239E-4,.188E-5,0
SL-14 R/B,1990-018B,2026-07-17T19:04:39.361728,14.82234966,.00168297,82.5215,101.5003,28.7253,331.4885,0,U,20511,999,94185,.20928337E-4,.191E-5,0
HST,1990-037B,2026-07-17T18:45:41.271552,15.31075985,.00021817,28.4720,231.4172,129.0491,231.0299,0,U,20580,999,79326,.916637E-4,.3062E-4,0
SL-16 R/B,1990-046B,2026-07-17T21:51:45.146880,14.15026422,.00123388,70.9990,24.4195,109.5306,250.7150,0,U,20625,999,86681,.17559139E-3,.293E-5,0
COSMOS 2084,1990-055A,2026-07-17T12:50:29.457888,15.06228084,.0008377,62.7880,252.4997,320.4750,39.5739,0,U,20663,999,95587,.60239E-4,.684E-5,0
SL-6 R/B(2),1990-055D,2026-07-17T21:33:44.928288,15.04094548,.0045542,62.7806,170.8606,9.3607,350.8330,0,U,20666,999,95777,.84906995E-4,.997E-5,0
SL-8 R/B,1990-078B,2026-07-17T21:19:38.672256,14.93621506,.03431615,82.9035,133.8725,294.3680,62.2078,0,U,20775,999,82870,.22678578E-3,.8004E-4,0
SL-8 R/B,1991-006B,2026-07-17T22:09:40.526208,13.77509584,.00232822,82.9405,73.1658,33.1737,337.4752,0,U,21088,999,78200,.63464298E-4,.79E-6,0
OKEAN-3,1991-039A,2026-07-17T20:20:39.815520,15.05443719,.001264,82.5146,210.6456,244.4727,115.5194,0,U,21397,999,88461,.1210753E-3,.1768E-4,0
COSMOS 2151,1991-042A,2026-07-17T20:51:32.374080,15.00517414,.00117074,82.4983,318.0705,346.2469,13.8435,0,U,21422,999,88271,.73003462E-4,.948E-5,0
SL-14 R/B,1991-042B,2026-07-17T21:00:42.144192,14.81918856,.00172285,82.4931,98.1180,168.1695,191.9928,0,U,21423,999,87235,.1902767E-4,.175E-5,0
ERS-1,1991-050A,2026-07-17T16:17:02.875200,14.39534488,.00320475,98.7796,220.1212,174.4385,185.7164,0,U,21574,999,83443,.71159228E-4,.177E-5,0
ARIANE 40 R/B,1991-050F,2026-07-17T13:25:50.261664,14.42972584,.0004064,98.1861,245.7910,56.2498,303.9080,0,U,21610,999,83772,.42142E-4,.99E-6,0
INTERCOSMOS 25,1991-086A,2026-07-17T03:45:45.745344,12.12241021,.14846769,82.6004,231.6740,197.6921,156.6658,0,U,21819,999,51237,.15423351E-4,.94E-6,0
SL-8 R/B,1992-008B,2026-07-17T22:57:04.618944,13.75984233,.00357947,82.9274,170.9107,129.1040,285.5369,0,U,21876,999,72733,.82153057E-4,.96E-6,0
SL-8 R/B,1992-020B,2026-07-17T14:21:05.541984,13.75550049,.0027865,82.9279,57.2649,296.5120,92.2018,0,U,21938,999,71899,-.1676E-4,-.1E-7,0
USA 81,1992-023A,2026-07-17T14:13:01.600032,14.32405338,.0001885,85.0049,56.4542,65.5660,294.5729,0,U,21949,999,11338,.26663E-4,.92E-6,0
COSMOS 2219,1992-076A,2026-07-17T21:22:23.616768,14.14107698,.00184194,71.0609,105.8893,353.4208,6.6670,0,U,22219,999,73678,-.10743551E-3,-.252E-5,0
SL-16 R/B,1992-076B,2026-07-17T12:27:08.834400,14.16877988,.0015038,71.0003,274.8867,259.2518,111.9309,0,U,22220,999,74022,.2752E-4,.7E-7,0
COSMOS 2221,1992-080A,2026-07-17T21:29:01.852512,14.96608197,.00158606,82.5047,154.3438,111.9853,248.3057,0,U,22236,999,80026,.71615254E-4,.844E-5,0
SL-16 R/B,1992-093B,2026-07-17T23:36:24.985728,14.15464680,.0002182,71.0215,90.7419,126.5962,233.5362,0,U,22285,999,73159,-.11067469E-3,-.264E-5,0
COSMOS 2228,1992-094A,2026-07-17T21:19:46.881984,14.97680171,.00165091,82.5187,112.6354,219.4553,140.5468,0,U,22286,999,79554,.69234849E-4,.839E-5,0
SL-16 R/B,1993-016B,2026-07-17T06:14:40.888608,14.15313778,.0008758,71.0086,303.0435,134.2775,225.9068,0,U,22566,999,72050,.16632E-3,.276E-5,0
COSMOS 2242,1993-024A,2026-07-17T22:17:57.384096,14.96989352,.00148206,82.5199,142.1314,222.6075,137.3999,0,U,22626,999,79987,.73663204E-4,.875E-5,0
SL-16 R/B,1993-059B,2026-07-17T23:32:02.188896,14.17249456,.00168073,70.9901,96.3670,4.4496,355.6774,0,U,22803,999,69799,.51193186E-4,.55E-6,0
ARIANE 40 R/B,1993-061H,2026-07-17T18:57:37.669248,14.32919086,.00095266,98.4804,265.0092,257.1450,102.8671,0,U,22830,999,71273,.38339478E-4,.62E-6,0
COSMOS 2278,1994-023A,2026-07-17T14:05:16.196064,14.14393680,.0009513,71.0519,263.3217,201.9493,158.1223,0,U,23087,999,66317,.73588E-4,.94E-6,0
SL-16 R/B,1994-023B,2026-07-17T22:17:13.627680,14.15025717,.00013538,70.9987,157.3712,117.5878,242.5382,0,U,23088,999,66451,.14815929E-3,.239E-5,0
SL-16 R/B,1994-074B,2026-07-17T12:46:43.240224,14.79525447,.0007341,97.6986,223.9877,147.4090,13.5852,0,U,23343,999,70644,.28705E-4,.166E-5,0
